GLOBALSTAR M094         
1 39074U 13005C   24303.90957015 -.00000053  00000+0  28470-3 0  9992
2 39074  51.9933 163.2446 0001163  91.9180 268.1820 12.62264538543299
GLOBALSTAR M096         
1 39075U 13005D   24304.00190766 -.00000054  00000+0  28017-3 0  9995
2 39075  52.0065 211.2976 0001062  77.6384 282.4602 12.62263607542220
GLOBALSTAR M078         
1 39076U 13005E   24303.65835785 -.00000084  00000+0  11104-3 0  9995
2 39076  51.9875 297.1644 0001315  41.4352 318.6614 12.62276804540808
GLOBALSTAR M095         
1 39077U 13005F   24304.00197789 -.00000081  00000+0  12952-3 0  9990
2 39077  51.9800 293.4322 0001021  65.7226 294.3747 12.62267066540708
GLOBALSTAR M087         
1 52888U 22064A   24303.83324684 -.00000066  00000+0  11921-3 0  9994
2 52888  51.9747  98.8680 0009052 351.3235   8.7508 13.37591462115548
